GLOBALSTAR M023         
1 25621U 99004A   25054.98050948 -.00000073  00000+0  17348-3 0  9993
2 25621  52.0119  38.1573 0009778 236.8976 158.5743 12.62495767201437
GLOBALSTAR M040         
1 25622U 99004B   25054.12895557 -.00000047  00000+0  31710-3 0  9993
2 25622  51.9926  44.7342 0001004 133.3179 305.1531 12.62002652200856
GLOBALSTAR M022         
1 25649U 99012A   25054.76738234 -.00000069  00000+0  21063-3 0  9993
2 25649  52.0014 239.2294 0001726 324.8786  48.1770 12.02496522162734
GLOBALSTAR M046         
1 25651U 99012C   25054.80714100 -.00000035  00000+0  59030-3 0  9995
2 25651  52.0048 193.3926 0002475  48.5302  99.3769 12.09407759169949
GLOBALSTAR M037         
1 25652U 99012D   25054.81901586 -.00000058  00000+0  25369-3 0  9996
2 25652  51.9997 169.3105 0001110 297.6500 204.5352 12.62437356196959
